{
  "type": "FeatureCollection",
  "features": [
    {
      "type": "Feature",
      "properties": {
        "norad_id": 29828,
        "name": "FENGYUN 1C DEB",
        "group": "fengyun-1c-debris",
        "lat": 44.28609313159355,
        "lon": 26.588975734341954,
        "alt_km": 871.0986950218821,
        "timestamp": "2025-12-15T20:48:54.155009+00:00",
        "meta_object_name": "FENGYUN 1C DEB",
        "meta_object_id": "1999-025DW",
        "meta_epoch": "2025-12-14T19:20:14.127648",
        "meta_mean_motion": 14.08169251,
        "meta_eccentricity": 0.00614498,
        "meta_inclination": 98.7704,
        "meta_ra_of_asc_node": 34.2177,
        "meta_arg_of_pericenter": 150.3861,
        "meta_mean_anomaly": 276.7636,
        "meta_ephemeris_type": 0,
        "meta_classification_type": "U",
        "meta_norad_cat_id": 29828,
        "meta_element_set_no": 999,
        "meta_rev_at_epoch": 96766,
        "meta_bstar": 0.00083730335,
        "meta_mean_motion_dot": 1.411e-05,
        "meta_mean_motion_ddot": 0,
        "tle_line1": "1 29828U 99025DW  25348.80571907  .00001411  00000+0  83730-3 0  9993",
        "tle_line2": "2 29828  98.7704  34.2177 0061449 150.3861 276.7636 14.08169251967666"
      },
      "geometry": {
        "type": "Point",
        "coordinates": [
          26.588975734341954,
          44.28609313159355
        ]
      }
    },
    {
      "type": "Feature",
      "properties": {
        "norad_id": 29832,
        "name": "FENGYUN 1C DEB",
        "group": "fengyun-1c-debris",
        "lat": -77.25181301136215,
        "lon": -121.85753945856386,
        "alt_km": 578.7366041714022,
        "timestamp": "2025-12-15T20:48:54.155019+00:00",
        "meta_object_name": "FENGYUN 1C DEB",
        "meta_object_id": "1999-025EA",
        "meta_epoch": "2025-12-14T20:31:40.122336",
        "meta_mean_motion": 14.56559445,
        "meta_eccentricity": 0.01921706,
        "meta_inclination": 98.8195,
        "meta_ra_of_asc_node": 100.4056,
        "meta_arg_of_pericenter": 276.6236,
        "meta_mean_anomaly": 81.3121,
        "meta_ephemeris_type": 0,
        "meta_classification_type": "U",
        "meta_norad_cat_id": 29832,
        "meta_element_set_no": 999,
        "meta_rev_at_epoch": 286,
        "meta_bstar": 0.00016672021,
        "meta_mean_motion_dot": 8.88e-06,
        "meta_mean_motion_ddot": 0,
        "tle_line1": "1 29832U 99025EA  25348.85532549  .00000888  00000+0  16672-3 0  9990",
        "tle_line2": "2 29832  98.8195 100.4056 0192170 276.6236  81.3121 14.56559445  2864"
      },
      "geometry": {
        "type": "Point",
        "coordinates": [
          -121.85753945856386,
          -77.25181301136215
        ]
      }
    },
    {
      "type": "Feature",
      "properties": {
        "norad_id": 29833,
        "name": "FENGYUN 1C DEB",
        "group": "fengyun-1c-debris",
        "lat": -61.30400901397475,
        "lon": -10.365242736272902,
        "alt_km": 561.615878562835,
        "timestamp": "2025-12-15T20:48:54.155029+00:00",
        "meta_object_name": "FENGYUN 1C DEB",
        "meta_object_id": "1999-025EB",
        "meta_epoch": "2025-12-14T22:32:55.583808",
        "meta_mean_motion": 14.91162264,
        "meta_eccentricity": 0.00888438,
        "meta_inclination": 99.0761,
        "meta_ra_of_asc_node": 331.5892,
        "meta_arg_of_pericenter": 249.9304,
        "meta_mean_anomaly": 109.2331,
        "meta_ephemeris_type": 0,
        "meta_classification_type": "U",
        "meta_norad_cat_id": 29833,
        "meta_element_set_no": 999,
        "meta_rev_at_epoch": 604,
        "meta_bstar": 0.00070789865,
        "meta_mean_motion_dot": 7.503e-05,
        "meta_mean_motion_ddot": 0,
        "tle_line1": "1 29833U 99025EB  25348.93953222  .00007503  00000+0  70790-3 0  9997",
        "tle_line2": "2 29833  99.0761 331.5892 0088843 249.9304 109.2331 14.91162264  6047"
      },
      "geometry": {
        "type": "Point",
        "coordinates": [
          -10.365242736272902,
          -61.30400901397475
        ]
      }
    },
    {
      "type": "Feature",
      "properties": {
        "norad_id": 29835,
        "name": "FENGYUN 1C DEB",
        "group": "fengyun-1c-debris",
        "lat": -54.85223958354493,
        "lon": 131.49158883738167,
        "alt_km": 739.4374988213831,
        "timestamp": "2025-12-15T20:48:54.155040+00:00",
        "meta_object_name": "FENGYUN 1C DEB",
        "meta_object_id": "1999-025ED",
        "meta_epoch": "2025-12-14T22:21:31.665600",
        "meta_mean_motion": 14.43375401,
        "meta_eccentricity": 0.01678318,
        "meta_inclination": 99.0257,
        "meta_ra_of_asc_node": 117.4526,
        "meta_arg_of_pericenter": 30.7471,
        "meta_mean_anomaly": 96.2025,
        "meta_ephemeris_type": 0,
        "meta_classification_type": "U",
        "meta_norad_cat_id": 29835,
        "meta_element_set_no": 999,
        "meta_rev_at_epoch": 99526,
        "meta_bstar": 5.9261319e-05,
        "meta_mean_motion_dot": 1.8e-06,
        "meta_mean_motion_ddot": 0,
        "tle_line1": "1 29835U 99025ED  25348.93161650  .00000180  00000+0  59261-4 0  9990",
        "tle_line2": "2 29835  99.0257 117.4526 0167831  30.7471  96.2025 14.43375401995262"
      },
      "geometry": {
        "type": "Point",
        "coordinates": [
          131.49158883738167,
          -54.85223958354493
        ]
      }
    },
    {
      "type": "Feature",
      "properties": {
        "norad_id": 29836,
        "name": "FENGYUN 1C DEB",
        "group": "fengyun-1c-debris",
        "lat": -42.057080438248434,
        "lon": 93.2034425582875,
        "alt_km": 780.2451294744824,
        "timestamp": "2025-12-15T20:48:54.155050+00:00",
        "meta_object_name": "FENGYUN 1C DEB",
        "meta_object_id": "1999-025EE",
        "meta_epoch": "2025-12-14T19:10:40.931904",
        "meta_mean_motion": 14.54118951,
        "meta_eccentricity": 0.01546463,
        "meta_inclination": 98.1875,
        "meta_ra_of_asc_node": 84.6946,
        "meta_arg_of_pericenter": 195.9976,
        "meta_mean_anomaly": 291.4399,
        "meta_ephemeris_type": 0,
        "meta_classification_type": "U",
        "meta_norad_cat_id": 29836,
        "meta_element_set_no": 999,
        "meta_rev_at_epoch": 63585,
        "meta_bstar": 0.00063852568,
        "meta_mean_motion_dot": 3.113e-05,
        "meta_mean_motion_ddot": 0,
        "tle_line1": "1 29836U 99025EE  25348.79908486  .00003113  00000+0  63853-3 0  9991",
        "tle_line2": "2 29836  98.1875  84.6946 0154646 195.9976 291.4399 14.54118951635850"
      },
      "geometry": {
        "type": "Point",
        "coordinates": [
          93.2034425582875,
          -42.057080438248434
        ]
      }
    },
    {
      "type": "Feature",
      "properties": {
        "norad_id": 29841,
        "name": "FENGYUN 1C DEB",
        "group": "fengyun-1c-debris",
        "lat": -61.65135007013588,
        "lon": 100.4232813569842,
        "alt_km": 720.2033158144586,
        "timestamp": "2025-12-15T20:48:54.155060+00:00",
        "meta_object_name": "FENGYUN 1C DEB",
        "meta_object_id": "1999-025EK",
        "meta_epoch": "2025-12-14T20:43:51.697920",
        "meta_mean_motion": 14.46486628,
        "meta_eccentricity": 0.02003358,
        "meta_inclination": 98.8179,
        "meta_ra_of_asc_node": 296.0995,
        "meta_arg_of_pericenter": 327.3129,
        "meta_mean_anomaly": 95.2656,
        "meta_ephemeris_type": 0,
        "meta_classification_type": "U",
        "meta_norad_cat_id": 29841,
        "meta_element_set_no": 999,
        "meta_rev_at_epoch": 99354,
        "meta_bstar": 0.00043080537,
        "meta_mean_motion_dot": 1.93e-05,
        "meta_mean_motion_ddot": 0,
        "tle_line1": "1 29841U 99025EK  25348.86379280  .00001930  00000+0  43081-3 0  9995",
        "tle_line2": "2 29841  98.8179 296.0995 0200335 327.3129  95.2656 14.46486628993540"
      },
      "geometry": {
        "type": "Point",
        "coordinates": [
          100.4232813569842,
          -61.65135007013588
        ]
      }
    },
    {
      "type": "Feature",
      "properties": {
        "norad_id": 29842,
        "name": "FENGYUN 1C DEB",
        "group": "fengyun-1c-debris",
        "lat": 81.04008505273262,
        "lon": 4.50410365360929,
        "alt_km": 655.527124820871,
        "timestamp": "2025-12-15T20:48:54.155069+00:00",
        "meta_object_name": "FENGYUN 1C DEB",
        "meta_object_id": "1999-025EL",
        "meta_epoch": "2025-12-14T11:35:41.353728",
        "meta_mean_motion": 14.60286224,
        "meta_eccentricity": 0.01090899,
        "meta_inclination": 98.569,
        "meta_ra_of_asc_node": 76.0782,
        "meta_arg_of_pericenter": 159.9972,
        "meta_mean_anomaly": 216.1228,
        "meta_ephemeris_type": 0,
        "meta_classification_type": "U",
        "meta_norad_cat_id": 29842,
        "meta_element_set_no": 999,
        "meta_rev_at_epoch": 99379,
        "meta_bstar": 0.0014665061,
        "meta_mean_motion_dot": 7.652e-05,
        "meta_mean_motion_ddot": 0,
        "tle_line1": "1 29842U 99025EL  25348.48311752  .00007652  00000+0  14665-2 0  9996",
        "tle_line2": "2 29842  98.5690  76.0782 0109089 159.9972 216.1228 14.60286224993797"
      },
      "geometry": {
        "type": "Point",
        "coordinates": [
          4.50410365360929,
          81.04008505273262
        ]
      }
    }
  ]
}